{
  "norad_id": 64382,
  "name": "STARLINK-11740 [DTC]",
  "history": [
    {
      "epoch": "2026-03-28T16:29:14.546688Z",
      "apogee_km": 357.09350977055874,
      "perigee_km": 355.25396544947307,
      "latitude_deg": -1.6405411100999342e-05,
      "longitude_deg": -103.70307693108414,
      "height_km": 356.1281354908868,
      "semi_major_axis_km": 6734.310737610016,
      "eccentricity": 0.00013658,
      "inclination_deg": 42.9988,
      "raan_deg": 329.7114,
      "arg_perigee_deg": 258.5762,
      "mean_anomaly_deg": 101.4952,
      "mean_motion_rev_day": 15.70952429
    },
    {
      "epoch": "2026-03-29T01:38:37.142016Z",
      "apogee_km": 357.2720143905881,
      "perigee_km": 355.47915245062995,
      "latitude_deg": -3.450208388079202e-06,
      "longitude_deg": 116.27835468405827,
      "height_km": 355.78535015283825,
      "semi_major_axis_km": 6734.512583420609,
      "eccentricity": 0.00013311,
      "inclination_deg": 43.0008,
      "raan_deg": 327.413,
      "arg_perigee_deg": 293.864,
      "mean_anomaly_deg": 66.2088,
      "mean_motion_rev_day": 15.70881803
    },
    {
      "epoch": "2026-03-30T08:09:48.858912Z",
      "apogee_km": 358.08014513665967,
      "perigee_km": 354.0840595213367,
      "latitude_deg": -5.897310048867359e-06,
      "longitude_deg": 9.559223908372775,
      "height_km": 355.38554137806045,
      "semi_major_axis_km": 6734.219102328998,
      "eccentricity": 0.0002967,
      "inclination_deg": 42.9989,
      "raan_deg": 319.7461,
      "arg_perigee_deg": 283.6059,
      "mean_anomaly_deg": 76.4478,
      "mean_motion_rev_day": 15.70984494
    },
    {
      "epoch": "2026-03-30T21:53:51.048096Z",
      "apogee_km": 357.2390580573583,
      "perigee_km": 355.535762143556,
      "latitude_deg": 3.2544970928034476e-06,
      "longitude_deg": 159.53527979621398,
      "height_km": 356.5391900096148,
      "semi_major_axis_km": 6734.524410100457,
      "eccentricity": 0.00012646,
      "inclination_deg": 42.9987,
      "raan_deg": 316.2953,
      "arg_perigee_deg": 243.5177,
      "mean_anomaly_deg": 116.5561,
      "mean_motion_rev_day": 15.70877665
    },
    {
      "epoch": "2026-03-31T14:41:00.299328Z",
      "apogee_km": 356.98473551091683,
      "perigee_km": 355.0735791554662,
      "latitude_deg": 3.9636743268510465e-05,
      "longitude_deg": -97.15639979128831,
      "height_km": 356.4745408026296,
      "semi_major_axis_km": 6734.166157333191,
      "eccentricity": 0.0001419,
      "inclination_deg": 42.9988,
      "raan_deg": 312.0815,
      "arg_perigee_deg": 225.1834,
      "mean_anomaly_deg": 134.8919,
      "mean_motion_rev_day": 15.71003021
    },
    {
      "epoch": "2026-04-01T19:40:38.568576Z",
      "apogee_km": 357.95029093841276,
      "perigee_km": 355.1042218236671,
      "latitude_deg": 2.988465367890505e-05,
      "longitude_deg": 179.46059638736483,
      "height_km": 356.16154611944995,
      "semi_major_axis_km": 6734.66425638104,
      "eccentricity": 0.0002113,
      "inclination_deg": 42.9992,
      "raan_deg": 304.7987,
      "arg_perigee_deg": 275.5908,
      "mean_anomaly_deg": 84.4719,
      "mean_motion_rev_day": 15.70828736
    },
    {
      "epoch": "2026-04-02T13:59:20.746464Z",
      "apogee_km": 357.3294146418675,
      "perigee_km": 354.41897500346477,
      "latitude_deg": -5.210161035611416e-06,
      "longitude_deg": -100.56521706481196,
      "height_km": 355.9378954879869,
      "semi_major_axis_km": 6734.011194822666,
      "eccentricity": 0.0002161,
      "inclination_deg": 42.9992,
      "raan_deg": 300.2007,
      "arg_perigee_deg": 258.471,
      "mean_anomaly_deg": 101.5915,
      "mean_motion_rev_day": 15.71057249
    },
    {
      "epoch": "2026-04-03T14:24:18.097344Z",
      "apogee_km": 357.577502942976,
      "perigee_km": 355.35104376200616,
      "latitude_deg": -6.613085081384639e-06,
      "longitude_deg": -113.94080696209481,
      "height_km": 356.5117475271095,
      "semi_major_axis_km": 6734.601273352491,
      "eccentricity": 0.0001653,
      "inclination_deg": 43.0002,
      "raan_deg": 294.0668,
      "arg_perigee_deg": 255.7046,
      "mean_anomaly_deg": 104.3638,
      "mean_motion_rev_day": 15.70850772
    },
    {
      "epoch": "2026-04-04T13:17:43.217952Z",
      "apogee_km": 357.7864840939137,
      "perigee_km": 354.62807662642444,
      "latitude_deg": -1.4398933883669147e-05,
      "longitude_deg": -103.98475670216075,
      "height_km": 355.46986583113625,
      "semi_major_axis_km": 6734.344280360169,
      "eccentricity": 0.0002345,
      "inclination_deg": 42.9986,
      "raan_deg": 288.3176,
      "arg_perigee_deg": 288.8568,
      "mean_anomaly_deg": 71.2045,
      "mean_motion_rev_day": 15.70940692
    },
    {
      "epoch": "2026-04-05T13:42:40.666464Z",
      "apogee_km": 357.3063796930155,
      "perigee_km": 355.7210429155739,
      "latitude_deg": 2.8259246401838767e-05,
      "longitude_deg": -117.35880922022768,
      "height_km": 356.15239113771986,
      "semi_major_axis_km": 6734.650711304294,
      "eccentricity": 0.0001177,
      "inclination_deg": 42.9987,
      "raan_deg": 282.1856,
      "arg_perigee_deg": 279.691,
      "mean_anomaly_deg": 80.3825,
      "mean_motion_rev_day": 15.70833475
    },
    {
      "epoch": "2026-04-05T21:20:28.525056Z",
      "apogee_km": 357.11885159486064,
      "perigee_km": 355.5645339125731,
      "latitude_deg": 4.467295741091266e-05,
      "longitude_deg": 125.9626455608615,
      "height_km": 356.01779015885404,
      "semi_major_axis_km": 6734.478692753716,
      "eccentricity": 0.0001154,
      "inclination_deg": 42.9991,
      "raan_deg": 280.2698,
      "arg_perigee_deg": 277.0983,
      "mean_anomaly_deg": 82.9754,
      "mean_motion_rev_day": 15.70893661
    }
  ]
}